RS57S MONITOR-4
1 57182U 23091S   26045.87103076  .00009851  00000+0  39409-3 0  9997
2 57182  97.5253 108.5246 0012863 165.5433 194.6175 15.25216895145635
RS-38S
1 57189U 23091Z   26045.84145236  .00015128  00000+0  49342-3 0  9996
2 57189  97.5255 113.1660 0008782 141.9014 218.2849 15.31856519145938
RS49S NANOZOND-1
1 57190U 23091AA  26045.86626838  .00118927  00000+0  11260-2 0  9990
2 57190  97.5144 124.4296 0002619 143.2540 216.8899 15.66574812146693
RS27S UTMN-2
1 57203U 23091AP  26045.86448681  .00012919  00000+0  46385-3 0  9994
2 57203  97.5257 111.5933 0009456 146.6036 213.5802 15.28767086145839
METEOR-M2-4
1 59051U 24039A   26045.85808436  .00000024  00000+0  30258-4 0  9994
2 59051  98.6863   6.7935 0007373 155.5713 204.5816 14.22413458101876
SONATE-2
1 59112U 24043Q   26045.35922744  .00035717  00000+0  64749-3 0  9999
2 59112  97.5362 189.2056 0008027 295.6243  64.4178 15.49505043108815
MO-122
1 60209U 24125G   26045.56047914  .00034340  00000+0  57993-3 0  9993
2 60209  97.2479 261.1924 0012089 317.0016  43.0291 15.51472782 90482
GRBBeta
1 60237U 24128C   26045.66201931  .00004216  00000+0  29730-3 0  9996
2 60237  61.9900 285.8085 0053402 109.6548 251.0318 15.05508953 87813
Curium One
1 60242U 24128H   26045.65049108  .00007951  00000+0  47995-3 0  9999
2 60242  61.9784 279.0996 0053273 106.6114 254.0840 15.10296703 87936
ROBUSTA-3A
1 60243U 24128J   26045.21954126  .00008743  00000+0  53596-3 0  9991
2 60243  61.9866 282.4484 0053981 103.8701 256.8406 15.09606098 87843
CatSat
1 60246U 24125J   26045.53868867  .00034904  00000+0  69369-3 0  9995
2 60246  97.2244 257.4728 0028215 275.8575  83.9458 15.46448164 88365
ARTIC WX
1 60543U 24149CD  26045.17517791  .00001006  00000+0  11038-3 0  9995
2 60543  97.6924 119.0933 0003139 133.9299 226.2178 14.89813223 80989
ARCTICSAT 1
1 61762U 24199AD  26045.84486869  .00070577  00000+0  82557-3 0  9992
2 61762  97.3147 283.3752 0006366   5.4083 354.7242 15.61324016118822
HYPERVIEW-1G (RS66S)
1 61772U 24199AP  26045.86733434  .00056041  00000+0  83391-3 0  9995
2 61772  97.3137 281.3931 0009790  17.8011 342.3584 15.54911766115556
AO-123
1 61781U 24199AY  26045.84735878  .00009687  00000+0  29987-3 0  9992
2 61781  97.3196 275.6470 0015265  33.0611 327.1583 15.33560864115168
SAMSAT-IONOSPHERE
1 61784U 24199BB  26045.86015980  .00032585  00000+0  62915-3 0  9993
2 61784  97.3163 279.6370 0011589  21.2073 338.9656 15.47670960118588
CROCUBE
1 62394U 24247T   26044.91518700  .00032479  00000+0  81399-3 0  9997
2 62394  44.9722 229.7708 0003463 238.1024 121.9527 15.39539590 64292
JINJUSat 1B
1 63210U 25052A   26045.63783392  .00014641  00000+0  51761-3 0  9992
2 63210  97.4165 302.4967 0004459 134.1582 226.0025 15.29273216 51341
NUSHSAT 1
1 63211U 25052B   26045.64539300  .00017531  00000+0  59071-3 0  9995
2 63211  97.4142 302.7332 0004296 135.0329 225.1260 15.30799034 51360
TEVEL2-4
1 63213U 25052D   26045.61319987  .00015941  00000+0  55249-3 0  9997
2 63213  97.4059 302.1104 0003101 140.8978 219.2487 15.29906954 51340
TEVEL2-5
1 63214U 25052E   26045.62243660  .00015595  00000+0  54239-3 0  9996
2 63214  97.4062 302.0970 0003086 141.3379 218.8083 15.29798412 51343
TEVEL2-6
1 63215U 25052F   26045.63162942  .00015735  00000+0  54794-3 0  9993
2 63215  97.4064 302.0925 0003122 142.9212 217.2245 15.29755343 51349
TEVEL2-1
1 63217U 25052H   26045.62377770  .00015482  00000+0  54570-3 0  9992
2 63217  97.4041 301.8389 0002649 154.7016 205.4354 15.29364331 51335
TEVEL2-3
1 63218U 25052J   26045.22929199  .00019196  00000+0  67520-3 0  9992
2 63218  97.4042 301.4563 0002632 157.6094 202.5261 15.29386047 51273
TEVEL2-2
1 63219U 25052K   26045.23188741  .00019057  00000+0  67095-3 0  9997
2 63219  97.4044 301.4498 0002603 158.4458 201.6893 15.29355987 51274
TEVEL2-9
1 63237U 25052AD  26045.65305534  .00015463  00000+0  57283-3 0  9999
2 63237  97.4103 301.4775 0005428 201.1319 158.9697 15.27721650 51298
TEVEL2-7
1 63238U 25052AE  26045.67424385  .00014209  00000+0  52983-3 0  9997
2 63238  97.4107 301.4580 0005480 201.0120 159.0895 15.27522326 51295
TEVEL2-8
1 63239U 25052AF  26045.22236105  .00017170  00000+0  64010-3 0  9994
2 63239  97.4105 300.9908 0005346 204.0206 156.0785 15.27488126 51228
HYDRA-W
1 63490U 25052BL  26045.65669653  .00096892  00000+0  14261-2 0  9998
2 63490  97.3991 305.9100 0005731 157.3930 202.7578 15.55088497 51609
HADES-ICM (SO-125)
1 63492U 25052BN  26045.18761953  .00111779  00000+0  19138-2 0  9994
2 63492  97.4005 304.8911 0005226 170.9961 189.1386 15.50825072 51495
PARUS-T2
1 64574U 25135AY  26045.83232079  .00004190  00000+0  39141-3 0  9997
2 64574  97.7602 161.9359 0002323  44.2089 315.9316 14.94698045 35646
RSP-03
1 65732U 98067XL  26045.55995740  .02548887  11872-4  12684-2 0  9992
2 65732  51.6104 164.2588 0009517 331.4445  28.6050 16.20001057 23279
BOTAN
1 65942U 98067XP  26045.25685187  .00463784  00000+0  15238-2 0  9997
2 65942  51.6157 173.6046 0007973 322.9275  37.1178 15.88758377 19866
CEVROSAT1
1 66309U 25248S   26045.41505348  .00004885  00000+0  24240-3 0  9991
2 66309  45.4041  59.3192 0001908  59.4319 300.6755 15.18991132 15835
SPIRONE
1 66657U 25274H   26045.36072559  .00003571  00000+0  34903-3 0  9991
2 66657  97.7429 336.5070 0013976  66.0072 294.2609 14.92915916 11899
K-HERO
1 66660U 25274L   26045.33439890  .00002936  00000+0  28449-3 0  9999
2 66660  97.7433 336.5479 0015716  69.4361 290.8543 14.93381084 11896
SNUGLITE-III DURI
1 66661U 25274M   26045.32771705  .00002303  00000+0  22380-3 0  9999
2 66661  97.7430 336.5537 0016300  70.3649 289.9329 14.93480105 11894
SilverSat
1 66909U 98067XV  26045.63914030  .00107018  00000+0  10758-2 0  9992
2 66909  51.6270 182.2339 0002929 303.3470  56.7245 15.64616576 11573
GALAPAGOS
1 67279U 25313AH  26045.45639956  .00008128  00000+0  36890-3 0  9996
2 67279  97.4049 122.1017 0016012  76.6941 283.6079 15.20945192  7283
Lobachevsky
1 67282U 25313AL  26045.63049839  .00006046  00000+0  27051-3 0  9991
2 67282  97.4050 122.3144 0012307  72.8857 287.3726 15.21592193  7313
SAKHACUBE-CHOLBON
1 67290U 25313AU  26045.28671411  .00011632  00000+0  50652-3 0  9998
2 67290  97.4059 122.0231 0010901  72.0013 288.2410 15.22321206  7269
QMR-KWT
1 67291U 25313AV  26045.61052308  .00012863  00000+0  55365-3 0  9997
2 67291  97.4059 122.3533 0010532  70.6147 289.6227 15.22696398  7314
Delfi-N3xt
1 39428U 13066N   26045.63241346  .00006972  00000-0  63544-3 0  9997
2 39428  97.8347 326.2218 0075412 254.1236 105.1662 14.93278554656323
IO-86
1 40931U          25360.30710720  .00000000  00000-0  12800-3 0    00
2 40931   6.0006 332.5373 0012733 338.8432   8.1437 14.79075515    01
PARUS-T1
1 98707U 25009N   25063.20000000  .00000000  00000-0  00000-0 0    08
2 98707  97.4430 144.9801 0003811 149.1702 136.3402 15.16239457    06
T.MicroSat-1
1 98515U 25276Y   25347.12519372 +.00009703 +00000+0 +47621-3 0 00218
2 98515  97.4377  58.8963 0002080  99.7173 260.4296 15.18293117002180
CORIOLIS
1 27640U 03001A   26046.85490905  .00000162  00000+0  97023-4 0  9994
2 27640  98.7158  55.5797 0013618 198.2401 161.8289 14.19903697197002
